IRIDIUM 119             
1 42959U 17061E   25359.12401227  .00000289  00000+0  96146-4 0  9995
2 42959  86.3973  98.0404 0001875 101.7808 258.3598 14.34217573429864
IRIDIUM 107             
1 42960U 17061F   25359.00350360 -.00000010  00000+0 -10620-4 0  9992
2 42960  86.3971  98.1107 0002197 107.0691 253.0746 14.34217572429857
IRIDIUM 132             
1 42961U 17061G   25359.14938325  .00000135  00000+0  41174-4 0  9995
2 42961  86.3969  98.0305 0002128  99.6122 260.5315 14.34217720429875
IRIDIUM 136             
1 42962U 17061H   25359.04155856  .00000064  00000+0  15646-4 0  9991
2 42962  86.3971  98.0813 0002045 100.8119 259.3307 14.34218104429876
IRIDIUM 139             
1 42963U 17061J   25358.69905814  .00000105  00000+0  30500-4 0  9991
2 42963  86.3974  98.2838 0002213  99.8985 260.2461 14.34218733429830
IRIDIUM 125             
1 42964U 17061K   25358.75613760  .00000327  00000+0  10954-3 0  9991
2 42964  86.3972  98.3176 0002077 114.6463 245.4949 14.34215904429855
IRIDIUM 135             
1 43070U 17083A   25359.14887772  .00000236  00000+0  77211-4 0  9993
2 43070  86.3956  34.7552 0002167  92.4936 267.6508 14.34219215419200
IRIDIUM 138             
1 43071U 17083B   25359.17424829  .00000221  00000+0  71968-4 0  9994
2 43071  86.3970  34.4129 0001817  98.1381 262.0021 14.34217111419192
